ONEWEB-0094             
1 45450U 20020AC  25049.18817212  .00000043  00000+0  77454-4 0  9999
2 45450  87.9045 102.2649 0001845 100.3249 259.8090 13.17652007242579
ONEWEB-0087             
1 45451U 20020AD  25049.23344273  .00000160  00000+0  41424-3 0  9995
2 45451  87.8866 117.4918 0001861 111.1227 249.0100 13.11418629239158
ONEWEB-0082             
1 45452U 20020AE  25049.23018722  .00000054  00000+0  11519-3 0  9997
2 45452  87.8872 117.5083 0002036 105.3314 254.8039 13.11419342239256
ONEWEB-0050             
1 45453U 20020AF  25049.47422648  .00009069  00000+0  85583-3 0  9997
2 45453  88.0047 325.6197 0000609  33.5435 326.5834 14.93665364268331
ONEWEB-0034             
1 45454U 20020AG  25049.25223866  .00000641  00000+0  17732-2 0  9992
2 45454  87.8869 117.5234 0001926 103.0099 257.1244 13.11415715239168
ONEWEB-0060             
1 45455U 20020AH  25049.21844637 -.00000417  00000+0 -12121-2 0  9994
2 45455  87.8873 117.5534 0001750 101.3090 258.8234 13.11416099239123
ONEWEB-0086             
1 45456U 20020AJ  25049.20135207 -.00000229  00000+0 -68105-3 0  9995
2 45456  87.8869 117.5327 0001954 115.0255 245.1076 13.11413747239175
ONEWEB-0088             
1 45457U 20020AK  25049.48451999  .00000536  00000+0  14760-2 0  9991
2 45457  87.8863 117.4311 0001796 107.0834 253.0490 13.11414878239141
